0 SL-8 R/B
1 06061U 72043B   13283.15410282  .00000186  00000-0  67424-4 0  2646
2 06061 074.0568 145.3875 0021121 255.1297 249.3008 14.39980882164522
0 SL-8 R/B
1 06061U 72043B   13286.14040538  .00000170  00000-0  62389-4 0  2661
2 06061 074.0562 139.8768 0021062 249.1625 249.7983 14.39981630164952
0 SL-8 R/B
1 06061U 72043B   13287.18085003  .00000190  00000-0  68492-4 0  2676
2 06061 074.0561 137.9568 0021006 247.0486 243.3276 14.39982146165104
0 SL-8 R/B
1 06061U 72043B   13288.62512819  .00000243  00000-0  85237-4 0  2682
2 06061 074.0559 135.2916 0020991 244.1862 170.2101 14.39983475165311
0 SL-8 R/B
1 06061U 72043B   13289.73971656  .00000226  00000-0  80035-4 0  2696
2 06061 074.0559 133.2347 0020955 241.8934 188.1276 14.39984386165471
0 SL-8 R/B
1 06061U 72043B   13290.78476731  .00000222  00000-0  78818-4 0  2701
2 06061 074.0559 131.3061 0020929 239.7986 205.5156 14.39984850165621
0 SL-8 R/B
1 06061U 72043B   13291.82940602  .00000206  00000-0  73690-4 0  2716
2 06061 074.0560 129.3782 0020888 237.7035 220.7705 14.39984920165770
0 SL-8 R/B
1 06061U 72043B   13293.15746747  .00000154  00000-0  57177-4 0  2723
2 06061 074.0561 126.9275 0020865 235.1014 265.1862 14.39984876165963
0 SL-8 R/B
1 06061U 72043B   13294.53207382  .00000127  00000-0  48492-4 0  2734
2 06061 074.0562 124.3908 0020813 232.2820 191.0086 14.39985210166166
0 SL-8 R/B
1 06061U 72043B   13295.85943569  .00000187  00000-0  67703-4 0  2747
2 06061 074.0563 121.9414 0020776 229.6829 231.8017 14.39985439166350
